satname,norad_id,inclination_deg,eccentricity,mean_motion_rev_per_day,perigee_km,apogee_km,l1,l2
STARLINK-1420,45695,53.0468,0.0005326,15.6691023,364.15768812731676,371.3434075432715,1 45695U 20035AQ  26148.82146329  .00067501  00000+0  62460-3 0  9994,2 45695  53.0468 351.3245 0005326 103.0709 257.0901 15.66910230331875
STARLINK-1422,45696,53.1571,0.0003762,15.33956782,461.4468748872805,466.59491448724475,1 45696U 20035AR  26148.39382874  .00050835  00000+0  15266-2 0  9997,2 45696  53.1571  38.6503 0003762 115.7750 244.3641 15.33956782331182
STARLINK-1351,45697,53.0439,0.000453,15.65328268,369.23688482601847,375.35277606440195,1 45697U 20035AS  26148.76810499  .00053619  00000+0  53074-3 0  9991,2 45697  53.0439 351.8950 0004530 115.2885 244.8599 15.65328268331868
STARLINK-1400,45700,53.0436,0.0002751,15.63666382,375.2185917209754,378.93531043685925,1 45700U 20035AV  26148.83766117  .00144438  00000+0  15007-2 0  9994,2 45700  53.0436 354.0211 0002751  72.4104 287.7210 15.63666382331839
STARLINK-1403,45701,53.1567,0.0002578,15.32862824,465.51112141701924,469.04061629220087,1 45701U 20035AW  26147.94323494  .00052247  00000+0  16235-2 0  9993,2 45701  53.1567  28.2163 0002578 130.6629 229.4597 15.32862824331283
STARLINK-1407,45703,53.0279,0.0004722,15.72313044,349.1100067515208,355.46622022869997,1 45703U 20035AY  26148.56321929  .00079061  00000+0  58366-3 0  9990,2 45703  53.0279 282.5908 0004722   6.4299 353.6778 15.72313044332812
STARLINK-1411,45706,53.0318,0.0005528,15.8556937,311.0221965581968,318.4218214785669,1 45706U 20035BB  26148.83337963  .00222828  00000+0  88382-3 0  9990,2 45706  53.0318 303.7402 0005528 302.1935 330.7304 15.85569370  6090
STARLINK-1423,45710,53.0451,0.0006625,15.67855621,360.5711490768281,369.50585661810146,1 45710U 20035BF  26148.79445288  .00070235  00000+0  62482-3 0  9996,2 45710  53.0451 350.9696 0006625  73.4772 286.6971 15.67855621331860
STARLINK-1433,45711,53.0438,0.0006565,15.67406232,361.89958514872706,370.75506680873787,1 45711U 20035BG  26148.84097147  .00068321  00000+0  61928-3 0  9997,2 45711  53.0438 349.3094 0006565  78.4917 281.6835 15.67406232331896
STARLINK-1434,45712,53.0501,0.0002889,15.33349895,463.8489337162109,467.8033756269797,1 45712U 20035BH  26148.76929132  .00030376  00000+0  93692-3 0  9999,2 45712  53.0501   7.0787 0002889  68.3214 291.8094 15.33349895331656
STARLINK-1465,45731,53.0445,0.0001493,15.64845578,372.6748646597025,374.690958085238,1 45731U 20038B   26148.39459928  .00052402  00000+0  52912-3 0  9997,2 45731  53.0445 196.9434 0001493  69.3453 290.7721 15.64845578328796
STARLINK-1471,45735,53.0451,0.0003188,15.52902428,406.093372231584,410.420376966028,1 45735U 20038F   26148.61176964  .00031902  00000+0  50985-3 0  9992,2 45735  53.0451 117.8838 0003188  87.4026 272.7348 15.52902428329934
STARLINK-1480,45741,53.0471,0.0006034,15.64034143,371.942522365136,380.09343659437127,1 45741U 20038M   26148.37044170  .00094241  00000+0  97239-3 0  9993,2 45741  53.0471 190.6587 0006034 357.7731   2.3255 15.64034143328893
STARLINK-1500,45744,53.0348,0.000219,15.38646655,448.61493977811824,451.60571210687976,1 45744U 20038Q   26148.47032544  .00026285  00000+0  68622-3 0  9996,2 45744  53.0348 177.3275 0002190  96.9322 263.1930 15.38646655329089
STARLINK-1504,45746,53.019,0.0003747,15.5820641,390.3108898181208,395.3850659605505,1 45746U 20038S   26148.21239322  .00040668  00000+0  53255-3 0  9990,2 45746  53.0190 116.9869 0003747  69.3062 290.8351 15.58206410329894
STARLINK-1506,45747,53.077,0.0003037,15.28124467,479.3360028255365,483.5024972918218,1 45747U 20038T   26148.49695054  .00020986  00000+0  76567-3 0  9991,2 45747  53.0770 192.6022 0003037 113.7819 246.3499 15.28124467328882
STARLINK-1464,45751,53.0446,0.0004225,15.53503328,403.6402506976847,409.37327467715477,1 45751U 20038X   26148.38563317  .00042353  00000+0  65901-3 0  9992,2 45751  53.0446 182.8323 0004225   7.1291 352.9778 15.53503328329006
STARLINK-1477,45754,53.0491,0.0001143,15.18341332,510.06575774369776,511.64058089640366,1 45754U 20038AA  26148.44735544  .00025677  00000+0  12461-2 0  9997,2 45754  53.0491 209.2947 0001143 330.4516  29.6413 15.18341332328631
STARLINK-1478,45755,53.0451,0.0005592,15.67144888,363.3052058288822,370.8490533113945,1 45755U 20038AB  26148.43288524  .00103002  00000+0  93727-3 0  9992,2 45755  53.0451 168.4156 0005592  40.8497 319.2937 15.67144888329190
STARLINK-1493,45759,53.0458,0.0007433,15.63349796,372.96706789046766,383.010724647861,1 45759U 20038AF  26148.56070419  .00091367  00000+0  96852-3 0  9994,2 45759  53.0458 177.2126 0007433 355.1682   4.9258 15.63349796329083
STARLINK-1494,45760,53.0369,0.0003373,16.00361243,271.1739915090884,275.66113021584624,1 45760U 20038AG  26148.83337963  .00484991  11353-3  90991-3 0  9990,2 45760  53.0369 106.6154 0003373  64.9633 228.5867 16.00361243  6055
STARLINK-1502,45764,53.0448,0.0007299,15.59707904,383.562799075944,393.4407383505122,1 45764U 20038AL  26148.33258444  .00087214  00000+0  10650-2 0  9998,2 45764  53.0448 181.8588 0007299 333.7094  26.3547 15.59707904329016
STARLINK-1470,45772,53.0433,0.0004062,15.34278527,460.28541141176447,465.843203353882,1 45772U 20038AU  26148.36138383  .00037741  00000+0  11266-2 0  9993,2 45772  53.0433 162.5970 0004062   3.4232 356.6796 15.34278527329281
STARLINK-1482,45773,53.1556,0.0004909,15.36740337,452.40133665796657,459.1108528984196,1 45773U 20038AV  26148.45340995  .00029255  00000+0  81059-3 0  9997,2 45773  53.1556 178.6508 0004909 355.5640   4.5319 15.36740337329081
STARLINK-1496,45780,53.0444,0.0007942,15.60810678,379.9425964835973,390.68566225748964,1 45780U 20038BC  26148.27823435  .00051764  00000+0  61101-3 0  9996,2 45780  53.0444 153.0635 0007942  40.2216 319.9382 15.60810678329399
STARLINK-1513,45786,53.158,0.0001567,15.31706798,469.64651496661463,471.79294666605347,1 45786U 20038BJ  26148.39721160  .00000522  00000+0  28583-4 0  9991,2 45786  53.1580 180.4527 0001567  86.1861 273.9319 15.31706798329050
STARLINK-1522,46027,53.061,0.0003035,15.12540763,526.3585565817029,530.5508577479523,1 46027U 20055A   26148.65422929  .00028322  00000+0  16168-2 0  9991,2 46027  53.0610 125.0602 0003035  22.2522 337.8601 15.12540763320971
STARLINK-1523,46028,53.1576,0.000124,15.30204997,474.35033551212655,476.04996312515686,1 46028U 20055B   26148.20628111  .00004929  00000+0  17840-3 0  9990,2 46028  53.1576 117.3577 0001240  97.3022 262.8119 15.30204997321072
STARLINK-1526,46029,53.1611,0.0001225,15.30211952,474.33985187703365,476.01891439090105,1 46029U 20055C   26148.33057757  .00001348  00000+0  57607-4 0  9995,2 46029  53.1611 116.7898 0001225  94.0458 266.0683 15.30211952321084
STARLINK-1555,46032,53.1595,0.000173,15.30193559,474.048667916687,476.41993438688496,1 46032U 20055F   26148.64136601  .00005934  00000+0  21237-3 0  9993,2 46032  53.1595 115.3273 0001730  83.7011 276.4187 15.30193559321134
STARLINK-1556,46033,53.1598,0.0001709,15.30208426,474.0186774484728,476.36114458665907,1 46033U 20055G   26148.62450403  .00002821  00000+0  10731-3 0  9990,2 46033  53.1598 115.4250 0001709  78.8207 281.2985 15.30208426321109
STARLINK-1557,46034,53.16,0.0001134,15.30196876,474.4472259536533,476.0015683185238,1 46034U 20055H   26148.62767227  .00004763  00000+0  17285-3 0  9994,2 46034  53.1600 115.4067 0001134  82.2293 277.8837 15.30196876321108
STARLINK-1558,46035,53.1606,0.0001314,15.30215215,474.26911605569876,476.0701650408346,1 46035U 20055J   26148.37377066  .00008411  00000+0  29565-3 0  9993,2 46035  53.1606 116.5853 0001314  88.0050 272.1101 15.30215215321094
STARLINK-1560,46036,53.1604,0.0001534,15.30186881,474.2029304521484,476.3055508847865,1 46036U 20055K   26148.62135019 -.00001920  00000+0 -52732-4 0  9995,2 46036  53.1604 115.4405 0001534  91.6413 268.4763 15.30186881321134
STARLINK-1569,46039,53.1604,0.000124,15.30214746,474.3212306778123,476.02085107195035,1 46039U 20055N   26148.31161705  .00004037  00000+0  14829-3 0  9999,2 46039  53.1604 116.8651 0001240  85.1537 274.9606 15.30214746321077
STARLINK-1582,46043,53.1579,0.0001189,15.31713434,469.8856227500928,471.5142761766756,1 46043U 20055S   26148.20873734  .00009833  00000+0  32807-3 0  9999,2 46043  53.1579 116.8616 0001189  94.2752 265.8385 15.31713434321067
STARLINK-1591,46045,53.1576,0.0001515,15.30205425,474.16059101052724,476.23715177956,1 46045U 20055U   26148.34428757  .00010242  00000+0  35738-3 0  9999,2 46045  53.1576 116.7160 0001515  95.5878 264.5295 15.30205425321066
STARLINK-1524,46047,53.1587,0.0001108,15.31706243,469.96253172163233,471.48023873980037,1 46047U 20055W   26148.56956205  .00002908  00000+0  10541-3 0  9994,2 46047  53.1587 102.4806 0001108  98.4651 261.6476 15.31706243321309
STARLINK-1527,46048,53.1593,0.0001322,15.31713814,469.79340062497977,471.6042328149206,1 46048U 20055X   26148.56489962  .00007907  00000+0  26619-3 0  9993,2 46048  53.1593 102.4836 0001322  98.8859 261.2292 15.31713814321272
STARLINK-1540,46051,53.1601,0.0001123,15.31722884,469.90265883572647,471.4409012877286,1 46051U 20055AA  26148.28994524  .00011945  00000+0  39578-3 0  9996,2 46051  53.1601 103.9717 0001123  78.8771 281.2356 15.31722884321270
STARLINK-1541,46052,53.1588,0.0002212,15.80303076,328.09913055330435,331.066625827415,1 46052U 20055AB  26148.83337963  .00173908  00000+0  88992-3 0  9998,2 46052  53.1588  88.9393 0002212 150.6112 183.3420 15.80303076  5999
STARLINK-1543,46053,53.1618,0.0002004,15.3170302,469.3584796318355,472.10350592334,1 46053U 20055AC  26148.58821150 -.00002294  00000+0 -62143-4 0  9999,2 46053  53.1618 102.3852 0002004  80.6754 279.4474 15.31703020321310
STARLINK-1548,46054,53.1591,0.000124,15.31720645,469.82920112983265,471.52770736248567,1 46054U 20055AD  26148.27594206  .00005556  00000+0  19056-3 0  9991,2 46054  53.1591 103.9166 0001240  84.5131 275.6012 15.31720645321261
